IRIDIUM 116             
1 43072U 17083C   24334.08998963  .00000278  00000+0  92147-4 0  9996
2 43072  86.4005 198.1640 0001817  83.2490 276.8913 14.34218500363177
IRIDIUM 130             
1 43073U 17083D   24334.12804613  .00000049  00000+0  10423-4 0  9993
2 43073  86.4015 198.3678 0002033  79.4125 280.7300 14.34217665363125
IRIDIUM 151             
1 43074U 17083E   24334.38174536  .00000841  00000+0  29316-3 0  9996
2 43074  86.4006 198.0874 0002042  86.5700 273.5729 14.34219332363183
IRIDIUM 134             
1 43075U 17083F   24333.58258135  .00000080  00000+0  21366-4 0  9999
2 43075  86.4008 198.4209 0001869  83.5382 276.6027 14.34218306363030
IRIDIUM 137             
1 43076U 17083G   24333.87433782  .00000781  00000+0  27180-3 0  9992
2 43076  86.4011 198.3803 0001478  94.6221 265.5144 14.34221444363141
IRIDIUM 141             
1 43077U 17083H   24333.65869042  .00000712  00000+0  24717-3 0  9998
2 43077  86.4006 198.3334 0002264  82.7561 277.3892 14.34222186363116
IRIDIUM 153             
1 43078U 17083J   24334.51786489  .00000199  00000+0  64004-4 0  9991
2 43078  86.3992 166.5035 0002589  89.9754 270.1738 14.34218443364345
IRIDIUM 131             
1 43079U 17083K   24333.36693303  .00000618  00000+0  21372-3 0  9992
2 43079  86.4013 198.6031 0002093  87.2248 272.9188 14.34219535363006
